[{"OBJECT_NAME":"STARLINK-34984","OBJECT_ID":"2025-184T","EPOCH":"2026-03-09T16:53:00.151872","MEAN_MOTION":15.05647339,"ECCENTRICITY":8.635e-5,"INCLINATION":97.6033,"RA_OF_ASC_NODE":122.6862,"ARG_OF_PERICENTER":113.8583,"MEAN_ANOMALY":246.2734,"EPHEMERIS_TYPE":0,"CLASSIFICATION_TYPE":"U","NORAD_CAT_ID":65290,"ELEMENT_SET_NO":999,"REV_AT_EPOCH":3130,"BSTAR":0.00010638319,"MEAN_MOTION_DOT":1.474e-5,"MEAN_MOTION_DDOT":0},{"OBJECT_NAME":"USA 60","OBJECT_ID":"1990-050B","EPOCH":"2026-03-09T13:24:55.962720","MEAN_MOTION":13.64521674,"ECCENTRICITY":0.0879763,"INCLINATION":63.2945,"RA_OF_ASC_NODE":117.426,"ARG_OF_PERICENTER":81.005,"MEAN_ANOMALY":288.9398,"EPHEMERIS_TYPE":0,"CLASSIFICATION_TYPE":"U","NORAD_CAT_ID":20682,"ELEMENT_SET_NO":999,"REV_AT_EPOCH":9025,"BSTAR":0.00037184,"MEAN_MOTION_DOT":5.55e-5,"MEAN_MOTION_DDOT":0}]
